LKW-4                   
1 43236U 18025A   25183.93335265  .00012137  00000+0  31359-3 0  9996
2 43236  97.6024 330.2686 0004928 122.3758 237.7965 15.39266798405955
ZHUHAI-1 OVS-02         
1 43440U 18040B   25183.94142212  .00005345  00000+0  25435-3 0  9990
2 43440  97.0713 217.5361 0005775  68.3948 291.7902 15.19534248399587
ZHUHAI-1 OHS-02         
1 43441U 18040C   25183.94708434  .00008420  00000+0  32079-3 0  9994
2 43441  97.0772 222.3188 0013983  50.8594 309.3886 15.26855980 61004
GAOFEN-6                
1 43484U 18048A   25183.94613302  .00000542  00000+0  84650-4 0  9998
2 43484  97.8224 253.4614 0011818 217.9949 142.0429 14.76584482381858
LUOJIA-1 01             
1 43485U 18048B   25183.91489280  .00001561  00000+0  18792-3 0  9997
2 43485  97.8427 262.5683 0009389 179.6494 180.4729 14.85292365382339
PAKTES 1A               
1 43529U 18056A   25183.92006646  .00002510  00000+0  22397-3 0  9998
2 43529  98.0803 322.1860 0022330 187.2863 172.8036 14.96761941379633
PRSS 1                  
1 43530U 18056B   25183.88981009  .00000656  00000+0  91069-4 0  9992
2 43530  97.8248 255.7574 0001761  89.8674 270.2740 14.81121965376711
HAIYANG-1C              
1 43609U 18068A   25183.91710759  .00000099  00000+0  51083-4 0  9991
2 43609  98.5612 255.4950 0011483  55.7877 304.4394 14.34112315357020
SSTL S1-4               
1 43618U 18071A   25183.92190403  .00000814  00000+0  77092-4 0  9997
2 43618  97.5525  63.9405 0001169 195.6231 164.4955 14.96198475370714
HAIYANG-2B              
1 43655U 18081A   25183.96142962  .00000014  00000+0  56269-4 0  9995
2 43655  99.3322 192.9128 0002009 109.7731 250.3638 13.79307238336781
CZ-4B R/B               
1 43656U 18081B   25183.91074234  .00000038  00000+0  28744-4 0  9990
2 43656  99.3937  68.7364 0205053 192.2734 167.3410 14.31655231349327
CFOSAT                  
1 43662U 18083A   25183.95079997  .00003003  00000+0  15918-3 0  9997
2 43662  97.3622 193.7365 0002483 109.0194 251.1308 15.16124756369519
TEN-KOH                 
1 43677U 18084G   25183.93393526  .00001670  00000+0  13709-3 0  9993
2 43677  98.0852 357.1140 0007531 172.7277 187.4056 15.00658879363744
DIWATA-2B               
1 43678U 18084H   25183.89489425  .00001836  00000+0  15917-3 0  9990
2 43678  98.1034   0.9093 0008278 199.9202 160.1697 14.98407448363879
STARS-AO                
1 43679U 18084J   25183.79101700  .00004887  00000+0  29326-3 0  9995
2 43679  98.0753  12.0469 0001032 279.4957  80.6155 15.11448858364591
AUTCUBE 2               
1 43681U 18084K   25183.75527351  .00002720  00000+0  18898-3 0  9994
2 43681  98.0856   6.9010 0010796 137.0658 223.1412 15.06423590364259
METOP-C                 
1 43689U 18087A   25183.94304958  .00000070  00000+0  51830-4 0  9992
2 43689  98.7144 243.9813 0002365  99.2631 260.8814 14.21492778345210
ES'HAIL 2               
1 43700U 18090A   25183.86601603  .00000153  00000+0  00000+0 0  9998
2 43700   0.0174  42.8463 0002277  92.8964 122.9334  1.00271905 24174
TIANPING 1B             
1 43714U 18094E   25183.66321689  .00063700  00000+0  45645-3 0  9993
2 43714  97.3183 218.0728 0001530 312.8322  47.2814 15.73512326369830
MOHAMMED VI-B           
1 43717U 18095A   25183.89959892  .00000596  00000+0  84551-4 0  9999
2 43717  97.9528 256.2477 0001288  90.3412 269.7946 14.77071516356629
HYSIS                   
1 43719U 18096A   25183.89451682  .00000937  13900-9  12811-3 0  9997
2 43719  98.0297 247.4492 0001662 125.4436 234.6930 14.78626508355808
COSMOS 2530             
1 43751U 18097A   25183.93538502  .00000018  00000+0  53740-4 0  9990
2 43751  82.5140  79.0806 0020732  76.7871 283.5520 12.42867093298907
COSMOS 2531             
1 43752U 18097B   25183.88172783  .00000025  00000+0  11128-3 0  9991
2 43752  82.5185  80.0480 0017524  94.2934 266.0148 12.42860429298916
COSMOS 2532             
1 43753U 18097C   25183.90857182  .00000027  00000+0  12189-3 0  9998
2 43753  82.5130  78.9747 0019024  96.2076 264.1172 12.42859446298884
MINXSS-2                
1 43758U 18099A   25183.73923755  .00012484  00000+0  48241-3 0  9994
2 43758  97.5007 249.8571 0012973  78.6808 281.5887 15.26308332360508
SIRION PATHFINDER-2     
1 43759U 18099B   25183.70881648  .00003763  00000+0  23465-3 0  9997
2 43759  97.4758 236.0807 0011048  70.5972 289.6450 15.10077408359802
AISTECHSAT 2            
1 43768U 18099L   25183.64638953  .00003482  00000+0  21458-3 0  9997
2 43768  97.4807 234.4199 0006761  74.6258 285.5718 15.10597126359425
FOX-1CLIFF (AO-95)      
1 43770U 18099N   25183.72910669  .00006827  00000+0  34269-3 0  9996
2 43770  97.4899 241.5620 0012082 128.1134 232.1191 15.17563853360060
2018-099Q               
1 43772U 18099Q   25183.86247086  .00018203  00000+0  59809-3 0  9997
2 43772  97.4702 249.0450 0003851  39.9212 320.2312 15.31608807360563
RANGE-A                 
1 43773U 18099R   25183.87303124  .00004190  00000+0  26653-3 0  9996
2 43773  97.4467 231.5997 0012923 110.2389 250.0231 15.09261559359733
HIBER-2                 
1 43774U 18099S   25183.72428806  .00027763  00000+0  70482-3 0  9996
2 43774  97.4874 253.3183 0005905  66.4762 293.7103 15.39613358360740
MOVE-II                 
1 43780U 18099Y   25183.71383976  .00583928  14012-3  16300-2 0  9990
2 43780  97.4633 261.4027 0008167 238.9376 121.1097 15.93621626361460
VESTA-1                 
1 43781U 18099Z   25183.72799757  .00029860  00000+0  75259-3 0  9997
2 43781  97.4609 246.8161 0004407  92.5998 267.5752 15.39827335360622
SNUSAT-2                
1 43782U 18099AA  25183.66113020  .00005273  00000+0  28617-3 0  9992
2 43782  97.4581 238.0574 0013541  77.4803 282.7943 15.14888527359991
SNUGLITE                
1 43784U 18099AC  25183.95199742  .00007760  00000+0  38571-3 0  9994
2 43784  97.4396 237.9507 0005060  83.8933 276.2878 15.17909320360189
ITASAT                  
1 43786U 18099AE  25183.89094932  .00005631  00000+0  32014-3 0  9995
2 43786  97.4551 237.7236 0015809 123.3935 236.8811 15.13166841359989
KAZSCISAT-1             
1 43787U 18099AF  25183.45992977  .00444143  00000+0  15707-2 0  9998
2 43787  97.4382 256.2362 0006369 241.1664 118.8969 15.87973453361349
EAGLET-I                
1 43790U 18099AJ  25183.88979877  .00003870  00000+0  24677-3 0  9998
2 43790  97.4751 237.6017 0013621 108.3899 251.8813 15.09213719359581
ESEO                    
1 43792U 18099AL  25183.84169545  .00000721  00000+0  58287-4 0  9996
2 43792  97.4461 230.5093 0014989  83.7258 276.5674 15.02685405359318
CSIM-FD                 
1 43793U 18099AM  25183.47212575  .00111399  00000+0  58446-3 0  9998
2 43793  97.4768 263.2271 0004323 131.1159 229.0482 15.80443332361252
THEA                    
1 43796U 18099AQ  25183.68269530  .00008552  00000+0  37699-3 0  9990
2 43796  97.4924 247.5329 0011288  83.3616 276.8904 15.21990438359314
ASTROCAST 0.1           
1 43798U 18099AS  25183.75587513  .00011708  00000+0  41498-3 0  9993
2 43798  97.4826 251.4080 0008212  43.7765 316.4125 15.29225346360712
JY1SAT (JO-97)          
1 43803U 18099AX  25183.67530050  .00008141  00000+0  36707-3 0  9999
2 43803  97.4648 242.5500 0008817  71.6811 288.5383 15.21254017360288
SUOMI-100               
1 43804U 18099AY  25183.72738470  .00007132  00000+0  34578-3 0  9995
2 43804  97.4712 241.8313 0013675  71.7988 288.4734 15.18742982360210
AL-FARABI 2             
1 43805U 18099AZ  25183.90652770  .00021288  00000+0  64016-3 0  9992
2 43805  97.4536 248.2672 0007010  51.1053 309.0814 15.34388560360759
CENTAURI-1              
1 43809U 18099BD  25183.70779386  .00004575  00000+0  27304-3 0  9996
2 43809  97.4739 238.0158 0017341  97.8053 262.5147 15.11492751359628
GLOBAL-2                
1 43812U 18099BG  25183.69014546  .00002442  00000+0  17237-3 0  9993
2 43812  97.4025 229.3937 0004719 273.7177  86.3511 15.05832158359264
BRIO                    
1 43813U 18099BH  25183.73109116  .00755233  25764-3  16677-2 0  9994
2 43813  97.5041 269.4408 0008812 273.3024  86.7245 15.97990466361233
SEAHAWK-1               
1 43820U 18099BQ  25183.90058507  .00006643  00000+0  35422-3 0  9994
2 43820  97.4483 237.4572 0011326  90.4885 269.7645 15.15446964359507
SAUDISAT 5A             
1 43831U 18102A   25183.92295574  .00004317  00000+0  18490-3 0  9992
2 43831  97.3567 247.3254 0009083 290.1028  69.9232 15.23275341362428
SAUDISAT 5B             
1 43833U 18102C   25183.89023030  .00003677  00000+0  15589-3 0  9990
2 43833  97.3648 249.7472 0009837 293.6502  66.3702 15.23713124362520
2018-102D               
1 43834U 18102D   25183.92255871  .00014940  00000+0  38202-3 0  9997
2 43834  97.3794 260.3164 0006358 256.3820 103.6718 15.39518118363126
ISAT                    
1 43879U 18111D   25183.70824666  .00015023  00000+0  50917-3 0  9996
2 43879  97.5937  98.6219 0010680 112.2506 247.9868 15.30601857357230
UWE-4                   
1 43880U 18111E   25183.75042704  .00010916  00000+0  42072-3 0  9997
2 43880  97.5882  96.9795 0013589 124.0877 236.1653 15.26427834357164
D-STAR ONE (SPARROW)    
1 43881U 18111F   25183.73655208  .00015781  00000+0  51425-3 0  9992
2 43881  97.6085 101.6197 0008137 142.4833 217.6977 15.31884723357332
JILIN-1 09              
1 43943U 19005B   25183.91059071  .00003340  00000+0  17637-3 0  9995
2 43943  97.4808 277.8662 0002178 194.6385 165.4785 15.16200994356145
JILIN-1 10              
1 43946U 19005E   25183.93127930  .00004648  00000+0  21678-3 0  9992
2 43946  97.4813 279.1738 0010321  69.7151 290.5192 15.20314088356153
EGYPTSAT-A (MISRSAT-A)  
1 44047U 19008A   25183.89016388  .00000465  00000+0  81302-4 0  9991
2 44047  98.0192 248.7457 0001966  91.9888 268.1544 14.72372555341843
EMISAT                  
1 44078U 19018A   25183.89995826  .00000158  00000+0  58820-4 0  9997
2 44078  98.2857 240.2730 0018120 186.5751 173.5205 14.43731913329662
